{
    "links": {
        "self": "http://www.neowsapp.com/rest/v1/neo/3426412?api_key=iIulBulltgU6a56xZRHN4H3l9WmuAYTsLGpBGhQ2"
    },
    "id": "3426412",
    "neo_reference_id": "3426412",
    "name": "(2008 QT11)",
    "designation": "2008 QT11",
    "nasa_jpl_url": "http://ssd.jpl.nasa.gov/sbdb.cgi?sstr=3426412",
    "absolute_magnitude_h": 22.5,
    "estimated_diameter": {
        "kilometers": {
            "estimated_diameter_min": 0.0840533402,
            "estimated_diameter_max": 0.1879489824
        },
        "meters": {
            "estimated_diameter_min": 84.0533402073,
            "estimated_diameter_max": 187.9489824394
        },
        "miles": {
            "estimated_diameter_min": 0.0522283081,
            "estimated_diameter_max": 0.1167860472
        },
        "feet": {
            "estimated_diameter_min": 275.7655606856,
            "estimated_diameter_max": 616.6305395464
        }
    },
    "is_potentially_hazardous_asteroid": false,
    "close_approach_data": [
        {
            "close_approach_date": "2008-08-15",
            "close_approach_date_full": "2008-Aug-15 20:06",
            "epoch_date_close_approach": 1218830760000,
            "relative_velocity": {
                "kilometers_per_second": "10.2548752928",
                "kilometers_per_hour": "36917.5510541668",
                "miles_per_hour": "22939.1305425182"
            },
            "miss_distance": {
                "astronomical": "0.0366721274",
                "lunar": "14.2654575586",
                "kilometers": "5486072.147408638",
                "miles": "3408887.1602016844"
            },
            "orbiting_body": "Earth"
        }
    ],
    "orbital_data": {
        "orbit_id": "10",
        "orbit_determination_date": "2017-04-06 09:03:03",
        "first_observation_date": "2008-08-27",
        "last_observation_date": "2008-09-10",
        "data_arc_in_days": 14,
        "observations_used": 16,
        "orbit_uncertainty": "8",
        "minimum_orbit_intersection": ".0352612",
        "jupiter_tisserand_invariant": "4.732",
        "epoch_osculation": "2454710.5",
        "eccentricity": ".3778402894555744",
        "semi_major_axis": "1.373934537489678",
        "inclination": "6.79769129296508",
        "ascending_node_longitude": "128.5654608002042",
        "orbital_period": "588.230430899971",
        "perihelion_distance": ".8548067141515673",
        "perihelion_argument": "134.1490567644893",
        "aphelion_distance": "1.893062360827788",
        "perihelion_time": "2454647.826026368614",
        "mean_anomaly": "38.35678897601228",
        "mean_motion": ".6120050597335014",
        "equinox": "J2000",
        "orbit_class": {
            "orbit_class_type": "APO",
            "orbit_class_description": "Near-Earth asteroid orbits which cross the Earth’s orbit similar to that of 1862 Apollo",
            "orbit_class_range": "a (semi-major axis) > 1.0 AU; q (perihelion) < 1.017 AU"
        }
    },
    "is_sentry_object": false
}